0 CZ-4B R/B
1 29093U 06015B   13282.16507426  .00006945  00000-0  28588-3 0  1262
2 29093 097.5479 356.2454 0101470 058.8133 326.5417 15.19768704411402
0 CZ-4B R/B
1 29093U 06015B   13283.50002339  .00006127  00000-0  25255-3 0  1275
2 29093 097.5480 357.5803 0101354 054.2333 070.2389 15.19786001411602
0 CZ-4B R/B
1 29093U 06015B   13286.19201097  .00005750  00000-0  23730-3 0  1294
2 29093 097.5484 000.2727 0101048 044.9281 038.7619 15.19809338412011
0 CZ-4B R/B
1 29093U 06015B   13287.84744541  .00007219  00000-0  29694-3 0  1302
2 29093 097.5491 001.9289 0100927 039.2630 096.1112 15.19827144412268
0 CZ-4B R/B
1 29093U 06015B   13289.15323760  .00007322  00000-0  30104-3 0  1318
2 29093 097.5488 003.2351 0100789 034.7369 040.6248 15.19847810412462
0 CZ-4B R/B
1 29093U 06015B   13290.19680473  .00007083  00000-0  29136-3 0  1329
2 29093 097.5485 004.2790 0100645 031.0874 350.4908 15.19858362412626
0 CZ-4B R/B
1 29093U 06015B   13291.53215323  .00007554  00000-0  31052-3 0  1330
2 29093 097.5481 005.6149 0100488 026.4567 096.8639 15.19873486412825
0 CZ-4B R/B
1 29093U 06015B   13292.85103544  .00006429  00000-0  26474-3 0  1340
2 29093 097.5476 006.9342 0100374 021.9304 113.1630 15.19890253413029
0 CZ-4B R/B
1 29093U 06015B   13294.14645642  .00007011  00000-0  28838-3 0  1359
2 29093 097.5471 008.2300 0100241 017.4294 001.2255 15.19904977413225
0 CZ-4B R/B
1 29093U 06015B   13295.20648402  .00007008  00000-0  28829-3 0  1361
2 29093 097.5465 009.2901 0100083 013.7149 041.3853 15.19915871413389
